YAOGAN-30 06C           
1 44451U 19045C   26068.85043463  .00004352  00000+0  32596-3 0  9993
2 44451  34.9925 214.7382 0001081 261.6749  98.3837 15.02172666361604
STARLINK-34942          
1 65181U 25175H   26068.66331257  .00000885  00000+0  65515-4 0  9992
2 65181  97.6035 302.5892 0002669  80.0541 280.0987 15.05658299 32608
